{
  "type": "FeatureCollection",
  "features": [
    {
      "type": "Feature",
      "properties": {
        "norad_id": 37528,
        "name": "COSMOS 2251 DEB",
        "group": "cosmos-2251-debris",
        "lat": -6.225628897823412,
        "lon": -45.179896697136506,
        "alt_km": 728.7199685766072,
        "timestamp": "2025-12-06T22:38:43.126818+00:00",
        "meta_object_name": "COSMOS 2251 DEB",
        "meta_object_id": "1993-036BNH",
        "meta_epoch": "2025-12-03T17:38:33.606816",
        "meta_mean_motion": 14.50464938,
        "meta_eccentricity": 0.00209786,
        "meta_inclination": 74.0361,
        "meta_ra_of_asc_node": 139.0576,
        "meta_arg_of_pericenter": 288.0784,
        "meta_mean_anomaly": 71.8091,
        "meta_ephemeris_type": 0,
        "meta_classification_type": "U",
        "meta_norad_cat_id": 37528,
        "meta_element_set_no": 999,
        "meta_rev_at_epoch": 85800,
        "meta_bstar": 0.00065341092,
        "meta_mean_motion_dot": 2.535e-05,
        "meta_mean_motion_ddot": 0,
        "tle_line1": "1 37528U 93036BNH 25337.73511119  .00002535  00000+0  65341-3 0  9990",
        "tle_line2": "2 37528  74.0361 139.0576 0020978 288.0784  71.8091 14.50464938858003"
      },
      "geometry": {
        "type": "Point",
        "coordinates": [
          -45.179896697136506,
          -6.225628897823412
        ]
      }
    },
    {
      "type": "Feature",
      "properties": {
        "norad_id": 37530,
        "name": "COSMOS 2251 DEB",
        "group": "cosmos-2251-debris",
        "lat": 63.954223408238214,
        "lon": 20.116873810718985,
        "alt_km": 753.0438839217031,
        "timestamp": "2025-12-06T22:38:43.126828+00:00",
        "meta_object_name": "COSMOS 2251 DEB",
        "meta_object_id": "1993-036BNK",
        "meta_epoch": "2025-11-30T19:50:14.646624",
        "meta_mean_motion": 14.34478642,
        "meta_eccentricity": 0.00255427,
        "meta_inclination": 74.0356,
        "meta_ra_of_asc_node": 355.4602,
        "meta_arg_of_pericenter": 61.4891,
        "meta_mean_anomaly": 111.2815,
        "meta_ephemeris_type": 0,
        "meta_classification_type": "U",
        "meta_norad_cat_id": 37530,
        "meta_element_set_no": 999,
        "meta_rev_at_epoch": 85061,
        "meta_bstar": 0.00021143929,
        "meta_mean_motion_dot": 5.72e-06,
        "meta_mean_motion_ddot": 0,
        "tle_line1": "1 37530U 93036BNK 25334.82655841  .00000572  00000+0  21144-3 0  9993",
        "tle_line2": "2 37530  74.0356 355.4602 0025542  61.4891 111.2815 14.34478642850619"
      },
      "geometry": {
        "type": "Point",
        "coordinates": [
          20.116873810718985,
          63.954223408238214
        ]
      }
    },
    {
      "type": "Feature",
      "properties": {
        "norad_id": 37532,
        "name": "COSMOS 2251 DEB",
        "group": "cosmos-2251-debris",
        "lat": 42.53748524038913,
        "lon": -118.32586795935563,
        "alt_km": 744.2235426297666,
        "timestamp": "2025-12-06T22:38:43.126839+00:00",
        "meta_object_name": "COSMOS 2251 DEB",
        "meta_object_id": "1993-036BNM",
        "meta_epoch": "2025-12-05T23:13:02.808768",
        "meta_mean_motion": 14.42391309,
        "meta_eccentricity": 0.00157675,
        "meta_inclination": 74.0503,
        "meta_ra_of_asc_node": 228.2701,
        "meta_arg_of_pericenter": 329.7235,
        "meta_mean_anomaly": 48.0847,
        "meta_ephemeris_type": 0,
        "meta_classification_type": "U",
        "meta_norad_cat_id": 37532,
        "meta_element_set_no": 999,
        "meta_rev_at_epoch": 84818,
        "meta_bstar": 0.00041153416,
        "meta_mean_motion_dot": 1.336e-05,
        "meta_mean_motion_ddot": 0,
        "tle_line1": "1 37532U 93036BNM 25339.96739362  .00001336  00000+0  41153-3 0  9997",
        "tle_line2": "2 37532  74.0503 228.2701 0015767 329.7235  48.0847 14.42391309848186"
      },
      "geometry": {
        "type": "Point",
        "coordinates": [
          -118.32586795935563,
          42.53748524038913
        ]
      }
    },
    {
      "type": "Feature",
      "properties": {
        "norad_id": 37533,
        "name": "COSMOS 2251 DEB",
        "group": "cosmos-2251-debris",
        "lat": 45.67232088703544,
        "lon": -140.9766200172756,
        "alt_km": 944.5542198566709,
        "timestamp": "2025-12-06T22:38:43.126849+00:00",
        "meta_object_name": "COSMOS 2251 DEB",
        "meta_object_id": "1993-036BNN",
        "meta_epoch": "2025-12-06T08:48:45.576288",
        "meta_mean_motion": 14.12120184,
        "meta_eccentricity": 0.0158299,
        "meta_inclination": 74.0693,
        "meta_ra_of_asc_node": 203.0372,
        "meta_arg_of_pericenter": 261.0983,
        "meta_mean_anomaly": 97.2209,
        "meta_ephemeris_type": 0,
        "meta_classification_type": "U",
        "meta_norad_cat_id": 37533,
        "meta_element_set_no": 999,
        "meta_rev_at_epoch": 62831,
        "meta_bstar": 0.0023004993,
        "meta_mean_motion_dot": 4.727e-05,
        "meta_mean_motion_ddot": 0,
        "tle_line1": "1 37533U 93036BNN 25340.36719417  .00004727  00000+0  23005-2 0  9995",
        "tle_line2": "2 37533  74.0693 203.0372 0158299 261.0983  97.2209 14.12120184628315"
      },
      "geometry": {
        "type": "Point",
        "coordinates": [
          -140.9766200172756,
          45.67232088703544
        ]
      }
    },
    {
      "type": "Feature",
      "properties": {
        "norad_id": 37535,
        "name": "COSMOS 2251 DEB",
        "group": "cosmos-2251-debris",
        "lat": 72.9739813337481,
        "lon": 153.84822810501876,
        "alt_km": 706.2447840358791,
        "timestamp": "2025-12-06T22:38:43.126859+00:00",
        "meta_object_name": "COSMOS 2251 DEB",
        "meta_object_id": "1993-036BNQ",
        "meta_epoch": "2025-12-06T01:40:49.092960",
        "meta_mean_motion": 14.58376516,
        "meta_eccentricity": 0.00281002,
        "meta_inclination": 74.0246,
        "meta_ra_of_asc_node": 86.2053,
        "meta_arg_of_pericenter": 225.9862,
        "meta_mean_anomaly": 313.9237,
        "meta_ephemeris_type": 0,
        "meta_classification_type": "U",
        "meta_norad_cat_id": 37535,
        "meta_element_set_no": 999,
        "meta_rev_at_epoch": 85227,
        "meta_bstar": 0.0014588319,
        "meta_mean_motion_dot": 6.771e-05,
        "meta_mean_motion_ddot": 0,
        "tle_line1": "1 37535U 93036BNQ 25340.07001265  .00006771  00000+0  14588-2 0  9997",
        "tle_line2": "2 37535  74.0246  86.2053 0028100 225.9862 313.9237 14.58376516852275"
      },
      "geometry": {
        "type": "Point",
        "coordinates": [
          153.84822810501876,
          72.9739813337481
        ]
      }
    },
    {
      "type": "Feature",
      "properties": {
        "norad_id": 37537,
        "name": "COSMOS 2251 DEB",
        "group": "cosmos-2251-debris",
        "lat": -8.648880971493705,
        "lon": -86.68926630182055,
        "alt_km": 756.0858515274113,
        "timestamp": "2025-12-06T22:38:43.126869+00:00",
        "meta_object_name": "COSMOS 2251 DEB",
        "meta_object_id": "1993-036BNS",
        "meta_epoch": "2025-12-04T13:53:52.711584",
        "meta_mean_motion": 14.3747249,
        "meta_eccentricity": 0.0050092,
        "meta_inclination": 74.012,
        "meta_ra_of_asc_node": 280.1661,
        "meta_arg_of_pericenter": 62.5345,
        "meta_mean_anomaly": 298.0888,
        "meta_ephemeris_type": 0,
        "meta_classification_type": "U",
        "meta_norad_cat_id": 37537,
        "meta_element_set_no": 999,
        "meta_rev_at_epoch": 84916,
        "meta_bstar": 0.00043114,
        "meta_mean_motion_dot": 1.283e-05,
        "meta_mean_motion_ddot": 0,
        "tle_line1": "1 37537U 93036BNS 25338.57908231  .00001283  00000+0  43114-3 0  9991",
        "tle_line2": "2 37537  74.0120 280.1661 0050092  62.5345 298.0888 14.37472490849168"
      },
      "geometry": {
        "type": "Point",
        "coordinates": [
          -86.68926630182055,
          -8.648880971493705
        ]
      }
    },
    {
      "type": "Feature",
      "properties": {
        "norad_id": 37546,
        "name": "COSMOS 2251 DEB",
        "group": "cosmos-2251-debris",
        "lat": -69.49422738681413,
        "lon": -20.55407994977692,
        "alt_km": 638.306085643083,
        "timestamp": "2025-12-06T22:38:43.126879+00:00",
        "meta_object_name": "COSMOS 2251 DEB",
        "meta_object_id": "1993-036BPB",
        "meta_epoch": "2025-12-06T08:30:40.462272",
        "meta_mean_motion": 14.80108017,
        "meta_eccentricity": 0.0006314,
        "meta_inclination": 74.0211,
        "meta_ra_of_asc_node": 110.5973,
        "meta_arg_of_pericenter": 132.9797,
        "meta_mean_anomaly": 227.191,
        "meta_ephemeris_type": 0,
        "meta_classification_type": "U",
        "meta_norad_cat_id": 37546,
        "meta_element_set_no": 999,
        "meta_rev_at_epoch": 65793,
        "meta_bstar": 0.0052760355,
        "meta_mean_motion_dot": 0.00040242,
        "meta_mean_motion_ddot": 0,
        "tle_line1": "1 37546U 93036BPB 25340.35463498  .00040242  00000+0  52760-2 0  9995",
        "tle_line2": "2 37546  74.0211 110.5973 0006314 132.9797 227.1910 14.80108017657932"
      },
      "geometry": {
        "type": "Point",
        "coordinates": [
          -20.55407994977692,
          -69.49422738681413
        ]
      }
    }
  ]
}